{
    "type": "Feature",
    "properties": {
        "FID": 41,
        "CTYUA24CD": "e06000043",
        "CTYUA24NM": "Brighton and Hove",
        "CTYUA24NMW": " ",
        "BNG_E": 530278,
        "BNG_N": 106850,
        "LONG": -0.15080999999999999960920149533194489777088165283203125,
        "LAT": 50.84651000000000209411155083216726779937744140625,
        "GlobalID": "3a10f7bf-1f17-4f54-927a-dc967b4f0dcd"
    },
    "geometry": {
        "type": "Polygon",
        "coordinates": [
            [
                [
                    -0.165839496661965013490913634086609818041324615478515625,
                    50.8923349324308986751930206082761287689208984375
                ],
                [
                    -0.1681240719762429891570576501180767081677913665771484375,
                    50.880769500623500789515674114227294921875
                ],
                [
                    -0.1529078791559949912493010515390778891742229461669921875,
                    50.87985749849340066930380999110639095306396484375
                ],
                [
                    -0.1524686200983919881490891157227451913058757781982421875,
                    50.88546456412689877879529376514256000518798828125
                ],
                [
                    -0.135004643104498001093816128559410572052001953125,
                    50.88665049568110276823063031770288944244384765625
                ],
                [
                    -0.135279339082157001872275259302114136517047882080078125,
                    50.87809835752180021017920807935297489166259765625
                ],
                [
                    -0.12421171673072299579398958258025231771171092987060546875,
                    50.87802713822259903508893330581486225128173828125
                ],
                [
                    -0.12179965145278999483213766552580636925995349884033203125,
                    50.87342815435550136271558585576713085174560546875
                ],
                [
                    -0.1049151620078170032979159032038296572864055633544921875,
                    50.8723431660101965690046199597418308258056640625
                ],
                [
                    -0.0975192636219950059750516402345965616405010223388671875,
                    50.87794542446349765896229655481874942779541015625
                ],
                [
                    -0.084927634243044003437006495005334727466106414794921875,
                    50.87311962855370239822150324471294879913330078125
                ],
                [
                    -0.078832087011176998903039248034474439918994903564453125,
                    50.85380477389440301294598612003028392791748046875
                ],
                [
                    -0.07077887200424300140344513465606723912060260772705078125,
                    50.845818762465597728805732913315296173095703125
                ],
                [
                    -0.0734523413829600013702503247259301133453845977783203125,
                    50.84121456255250137701295898295938968658447265625
                ],
                [
                    -0.043491254627687998823848403162628528662025928497314453125,
                    50.84425313497170151322279707528650760650634765625
                ],
                [
                    -0.036315202168212996902685318900694255717098712921142578125,
                    50.8395077303816975700101465918123722076416015625
                ],
                [
                    -0.038992045596463999201919392589843482710421085357666015625,
                    50.83787185348199955114978365600109100341796875
                ],
                [
                    -0.03910376683310300138796122837447910569608211517333984375,
                    50.8286328499089989918502396903932094573974609375
                ],
                [
                    -0.045968393113643001013368660778724006377160549163818359375,
                    50.82182466080819693843295681290328502655029296875
                ],
                [
                    -0.0302291684849169996207596255999305867590010166168212890625,
                    50.81734921115599945551366545259952545166015625
                ],
                [
                    -0.0204283761521799993310377629995855386368930339813232421875,
                    50.821830354702200338579132221639156341552734375
                ],
                [
                    -0.01600235836966799884972800782634294591844081878662109375,
                    50.81487506436280199295651982538402080535888671875
                ],
                [
                    -0.038576618336782997342737644430599175393581390380859375,
                    50.799083079856501399262924678623676300048828125
                ],
                [
                    -0.0920798695739560024708936225579236634075641632080078125,
                    50.8117790799312984972857520915567874908447265625
                ],
                [
                    -0.09451578777615400606126883076285594142973423004150390625,
                    50.80907991030159820411427062936127185821533203125
                ],
                [
                    -0.09559368310479400554502404929735348559916019439697265625,
                    50.8085814508223023722166544757783412933349609375
                ],
                [
                    -0.0970195303986149948372030848986469209194183349609375,
                    50.8084021739285986996037536300718784332275390625
                ],
                [
                    -0.10616955092973499874542397947152494452893733978271484375,
                    50.80953924329980253560279379598796367645263671875
                ],
                [
                    -0.093535095779616994615679459457169286906719207763671875,
                    50.8104572470926001415136852301657199859619140625
                ],
                [
                    -0.10781021923037099885522849262997624464333057403564453125,
                    50.8115770097055019505205564200878143310546875
                ],
                [
                    -0.10636729678485999650572324526365264318883419036865234375,
                    50.80826535737789839686229242943227291107177734375
                ],
                [
                    -0.1081617916538669954551465934855514205992221832275390625,
                    50.81040508570030311830123537220060825347900390625
                ],
                [
                    -0.1075413696810740005194162449697614647448062896728515625,
                    50.81272023528629944166823406703770160675048828125
                ],
                [
                    -0.1360694582891170123506441314020776189863681793212890625,
                    50.8188353724495982532971538603305816650390625
                ],
                [
                    -0.216045730613236008910149621442542411386966705322265625,
                    50.82758475381699980744087952189147472381591796875
                ],
                [
                    -0.2166658250902259996717447165792691521346569061279296875,
                    50.8329624380972973085590638220310211181640625
                ],
                [
                    -0.2353825289510119989078162916484870947897434234619140625,
                    50.852411831807103226310573518276214599609375
                ],
                [
                    -0.2397529803041109908168238007419859059154987335205078125,
                    50.8619523253945970964196021668612957000732421875
                ],
                [
                    -0.2449708671036180118729674859423539601266384124755859375,
                    50.86380890347150085517569095827639102935791015625
                ],
                [
                    -0.2405757264633419933996805184506229124963283538818359375,
                    50.86520240549020144271707977168262004852294921875
                ],
                [
                    -0.233820234383320002535810999688692390918731689453125,
                    50.8751576847763971045424113981425762176513671875
                ],
                [
                    -0.2267193299689010121955590193465468473732471466064453125,
                    50.878180637750602954838541336357593536376953125
                ],
                [
                    -0.214146986476273004651460496461368165910243988037109375,
                    50.87517944648009660113530117087066173553466796875
                ],
                [
                    -0.213882276183813002656819435287616215646266937255859375,
                    50.870464662103501041201525367796421051025390625
                ],
                [
                    -0.20540174150350398729614198600756935775279998779296875,
                    50.87008724112259727689888677559792995452880859375
                ],
                [
                    -0.2026372183310579944137685970417805947363376617431640625,
                    50.8758570910166980638678069226443767547607421875
                ],
                [
                    -0.198987634717187999999765679604024626314640045166015625,
                    50.8701206099355971446129842661321163177490234375
                ],
                [
                    -0.18773445855602999277067510774941183626651763916015625,
                    50.86857046907339707786377402953803539276123046875
                ],
                [
                    -0.1897478865465209996177264883954194374382495880126953125,
                    50.87441599070179876207475899718701839447021484375
                ],
                [
                    -0.1818612386854369933342212561910855583846569061279296875,
                    50.88090452343519842770547256805002689361572265625
                ],
                [
                    -0.182416849918431989152622918481938540935516357421875,
                    50.88827104664110123621867387555539608001708984375
                ],
                [
                    -0.165839496661965013490913634086609818041324615478515625,
                    50.8923349324308986751930206082761287689208984375
                ]
            ]
        ]
    }
}